[{"OBJECT_NAME":"SIGI","OBJECT_ID":"2025-009Z","EPOCH":"2026-03-09T22:08:54.692736","MEAN_MOTION":15.23445824,"ECCENTRICITY":0.00019568,"INCLINATION":97.4047,"RA_OF_ASC_NODE":150.3738,"ARG_OF_PERICENTER":318.6476,"MEAN_ANOMALY":41.4612,"EPHEMERIS_TYPE":0,"CLASSIFICATION_TYPE":"U","NORAD_CAT_ID":62632,"ELEMENT_SET_NO":999,"REV_AT_EPOCH":6368,"BSTAR":0.00028660124,"MEAN_MOTION_DOT":6.759e-5,"MEAN_MOTION_DDOT":0},{"OBJECT_NAME":"CZ-3B R\/B","OBJECT_ID":"2024-087C","EPOCH":"2026-03-09T18:36:45.933696","MEAN_MOTION":10.64043142,"ECCENTRICITY":0.25228002,"INCLINATION":53.1167,"RA_OF_ASC_NODE":228.6923,"ARG_OF_PERICENTER":325.4682,"MEAN_ANOMALY":20.5006,"EPHEMERIS_TYPE":0,"CLASSIFICATION_TYPE":"U","NORAD_CAT_ID":59707,"ELEMENT_SET_NO":999,"REV_AT_EPOCH":4214,"BSTAR":0.00064355967,"MEAN_MOTION_DOT":0.00789846,"MEAN_MOTION_DDOT":1.883172e-6}]
